COSMOS 2251 DEB         
1 35612U 93036ANF 17345.66944250  .00011562  00000-0  59288-3 0  9994
2 35612  73.9904 196.5127 0013546 299.7145  60.2702 15.16533277455414
